[{"OBJECT_NAME":"STARLINK-5650","OBJECT_ID":"2023-015AC","EPOCH":"2026-03-09T23:48:54.157536","MEAN_MOTION":15.0253492,"ECCENTRICITY":0.00013819,"INCLINATION":43.0058,"RA_OF_ASC_NODE":323.9882,"ARG_OF_PERICENTER":266.1697,"MEAN_ANOMALY":93.8987,"EPHEMERIS_TYPE":0,"CLASSIFICATION_TYPE":"U","NORAD_CAT_ID":55475,"ELEMENT_SET_NO":999,"REV_AT_EPOCH":17080,"BSTAR":1.3792429e-5,"MEAN_MOTION_DOT":-1.7e-7,"MEAN_MOTION_DDOT":0},{"OBJECT_NAME":"CZ-4B DEB","OBJECT_ID":"1999-057Q","EPOCH":"2026-03-09T11:26:54.640320","MEAN_MOTION":15.06874272,"ECCENTRICITY":0.0020008,"INCLINATION":98.6841,"RA_OF_ASC_NODE":262.2845,"ARG_OF_PERICENTER":336.9186,"MEAN_ANOMALY":80.9466,"EPHEMERIS_TYPE":0,"CLASSIFICATION_TYPE":"U","NORAD_CAT_ID":26128,"ELEMENT_SET_NO":999,"REV_AT_EPOCH":40054,"BSTAR":0.00062227426,"MEAN_MOTION_DOT":9.256e-5,"MEAN_MOTION_DDOT":0}]
